{
    "links": {
        "self": "http://www.neowsapp.com/rest/v1/neo/54017204?api_key=iIulBulltgU6a56xZRHN4H3l9WmuAYTsLGpBGhQ2"
    },
    "id": "54017204",
    "neo_reference_id": "54017204",
    "name": "(2020 KY3)",
    "designation": "2020 KY3",
    "nasa_jpl_url": "http://ssd.jpl.nasa.gov/sbdb.cgi?sstr=54017204",
    "absolute_magnitude_h": 22.871,
    "estimated_diameter": {
        "kilometers": {
            "estimated_diameter_min": 0.070852467,
            "estimated_diameter_max": 0.1584309326
        },
        "meters": {
            "estimated_diameter_min": 70.8524670219,
            "estimated_diameter_max": 158.4309326345
        },
        "miles": {
            "estimated_diameter_min": 0.0440256683,
            "estimated_diameter_max": 0.098444387
        },
        "feet": {
            "estimated_diameter_min": 232.4556079041,
            "estimated_diameter_max": 519.7865410247
        }
    },
    "is_potentially_hazardous_asteroid": false,
    "close_approach_data": [
        {
            "close_approach_date": "2013-06-02",
            "close_approach_date_full": "2013-Jun-02 08:34",
            "epoch_date_close_approach": 1370162040000,
            "relative_velocity": {
                "kilometers_per_second": "16.8604175134",
                "kilometers_per_hour": "60697.5030483469",
                "miles_per_hour": "37715.0679357909"
            },
            "miss_distance": {
                "astronomical": "0.4961683048",
                "lunar": "193.0094705672",
                "kilometers": "74225721.559590776",
                "miles": "46121724.6843376688"
            },
            "orbiting_body": "Earth"
        },
        {
            "close_approach_date": "2020-06-03",
            "close_approach_date_full": "2020-Jun-03 01:27",
            "epoch_date_close_approach": 1591147620000,
            "relative_velocity": {
                "kilometers_per_second": "16.3932159109",
                "kilometers_per_hour": "59015.5772793455",
                "miles_per_hour": "36669.9846711578"
            },
            "miss_distance": {
                "astronomical": "0.2484566554",
                "lunar": "96.6496389506",
                "kilometers": "37168586.435163998",
                "miles": "23095488.6587712524"
            },
            "orbiting_body": "Earth"
        },
        {
            "close_approach_date": "2027-06-01",
            "close_approach_date_full": "2027-Jun-01 01:12",
            "epoch_date_close_approach": 1811812320000,
            "relative_velocity": {
                "kilometers_per_second": "18.795663818",
                "kilometers_per_hour": "67664.3897449642",
                "miles_per_hour": "42044.0203945862"
            },
            "miss_distance": {
                "astronomical": "0.3901326642",
                "lunar": "151.7616063738",
                "kilometers": "58363015.581745254",
                "miles": "36265096.2476383452"
            },
            "orbiting_body": "Earth"
        }
    ],
    "orbital_data": {
        "orbit_id": "4",
        "orbit_determination_date": "2020-06-15 06:14:30",
        "first_observation_date": "2020-05-18",
        "last_observation_date": "2020-06-14",
        "data_arc_in_days": 27,
        "observations_used": 24,
        "orbit_uncertainty": "7",
        "minimum_orbit_intersection": ".239312",
        "jupiter_tisserand_invariant": "3.915",
        "epoch_osculation": "2459000.5",
        "eccentricity": ".2971301580392373",
        "semi_major_axis": "1.748501719525384",
        "inclination": "31.95318359117139",
        "ascending_node_longitude": "68.57640135157823",
        "orbital_period": "844.4958553876774",
        "perihelion_distance": "1.228969127270929",
        "perihelion_argument": "206.0728301003117",
        "aphelion_distance": "2.26803431177984",
        "perihelion_time": "2459034.040878256173",
        "mean_anomaly": "345.701864496802",
        "mean_motion": ".4262898363601051",
        "equinox": "J2000",
        "orbit_class": {
            "orbit_class_type": "AMO",
            "orbit_class_description": "Near-Earth asteroid orbits similar to that of 1221 Amor",
            "orbit_class_range": "1.017 AU < q (perihelion) < 1.3 AU"
        }
    },
    "is_sentry_object": false
}